OBJECT_NAME,OBJECT_ID,EPOCH,MEAN_MOTION,ECCENTRICITY,INCLINATION,RA_OF_ASC_NODE,ARG_OF_PERICENTER,MEAN_ANOMALY,EPHEMERIS_TYPE,CLASSIFICATION_TYPE,NORAD_CAT_ID,ELEMENT_SET_NO,REV_AT_EPOCH,BSTAR,MEAN_MOTION_DOT,MEAN_MOTION_DDOT
ONEWEB-0395,2021-132G,2026-06-08T03:56:12.131520,13.11415124,.00019367,87.8890,22.8636,89.8922,270.2428,0,U,50475,999,21453,.52701404E-3,.199E-5,0
ONEWEB-0396,2021-132H,2026-06-08T01:29:21.061248,13.18684503,.0001961,87.9170,337.2703,88.2998,271.8359,0,U,50476,999,22043,-.15329521E-3,-.48E-6,0
ONEWEB-0397,2021-132J,2026-06-08T00:01:56.841312,13.18684734,.00019507,87.9169,337.2828,83.9131,276.2223,0,U,50477,999,22040,-.72851762E-4,-.16E-6,0
ONEWEB-0398,2021-132K,2026-06-08T03:09:47.797344,13.11420380,.00018388,87.8903,22.8601,93.8521,266.2817,0,U,50478,999,21442,.50750084E-4,.31E-6,0
ONEWEB-0399,2021-132L,2026-06-08T02:50:15.759744,13.11418568,.0002278,87.8904,22.8739,77.8535,282.2848,0,U,50479,999,21441,-.12027719E-2,-.414E-5,0
ONEWEB-0400,2021-132M,2026-06-08T04:58:10.530048,13.18685247,.00018628,87.9168,337.2314,96.5171,263.6173,0,U,50480,999,22042,-.19727795E-3,-.65E-6,0
ONEWEB-0401,2021-132N,2026-06-08T00:35:56.236416,13.18684495,.00017161,87.9168,337.2647,83.9860,276.1468,0,U,50481,999,22040,-.71036647E-4,-.15E-6,0
ONEWEB-0402,2021-132P,2026-06-08T01:31:48.220320,13.18684628,.00017121,87.9166,337.2469,75.7461,284.3861,0,U,50482,999,22043,.19971646E-3,.92E-6,0
ONEWEB-0403,2021-132Q,2026-06-08T00:18:56.366496,13.18684283,.00019998,87.9166,337.2809,90.8707,269.2655,0,U,50483,999,22038,.89061628E-4,.48E-6,0
ONEWEB-0404,2021-132R,2026-06-08T02:23:24.842976,13.11415554,.00021363,87.8896,22.8759,85.1839,274.9533,0,U,50484,999,21450,-.89584247E-3,-.305E-5,0
ONEWEB-0405,2021-132S,2026-06-08T00:38:23.210592,13.18686133,.00018282,87.9170,337.2623,105.5329,254.6005,0,U,50485,999,22078,.1279684E-3,.63E-6,0
ONEWEB-0406,2021-132T,2026-06-08T00:26:13.697376,13.18684887,.00023853,87.9159,337.2811,89.9395,270.2011,0,U,50486,999,22041,.21668093E-3,.98E-6,0
ONEWEB-0407,2021-132U,2026-06-08T00:16:31.517760,13.18684251,.0001633,87.9166,337.2743,91.5555,268.5764,0,U,50487,999,22035,.12076679E-3,.61E-6,0
ONEWEB-0409,2021-132V,2026-06-08T04:10:50.124864,13.11415823,.00020684,87.8902,22.8488,88.0848,272.0516,0,U,50488,999,21440,-.64242305E-3,-.215E-5,0
ONEWEB-0412,2021-132W,2026-06-07T22:10:15.034368,13.18684508,.00017291,87.9167,337.3005,80.8770,279.2558,0,U,50489,999,22043,.24135877E-3,.108E-5,0
ONEWEB-0413,2021-132X,2026-06-08T00:06:48.297888,13.18680465,.00016117,87.9155,337.2838,84.5094,275.6222,0,U,50490,999,22038,.59089752E-4,.36E-6,0
ONEWEB-0414,2021-132Y,2026-06-07T21:55:41.624544,13.18684577,.00019128,87.9168,337.2828,85.3896,274.7454,0,U,50491,999,22040,.32168459E-3,.14E-5,0
ONEWEB-0417,2021-132Z,2026-06-07T22:07:49.895328,13.18684755,.00020815,87.9159,337.3015,91.9490,268.1880,0,U,50492,999,22038,.20687023E-3,.94E-6,0
ONEWEB-0418,2021-132AA,2026-06-08T00:11:28.645152,13.18684374,.00021244,87.9170,337.2832,92.5118,267.6258,0,U,50493,999,22045,-.1980737E-5,.12E-6,0
ONEWEB-0419,2021-132AB,2026-06-08T00:38:02.915232,13.18665220,.00020391,87.9170,337.2789,97.6871,262.4493,0,U,50494,999,22037,.32408265E-4,.26E-6,0
ONEWEB-0420,2021-132AC,2026-06-07T21:58:07.161024,13.18685215,.00016518,87.9162,337.3050,92.3842,267.7479,0,U,50495,999,22035,.89068674E-4,.48E-6,0
ONEWEB-0421,2021-132AD,2026-06-08T05:05:26.960640,13.18684091,.00019633,87.9164,337.2431,79.6748,280.4605,0,U,50496,999,22043,-.71755724E-4,-.15E-6,0
ONEWEB-0424,2021-132AE,2026-06-08T00:31:05.082240,13.18684952,.0001956,87.9162,337.2785,100.6898,259.4454,0,U,50497,999,22043,.52312851E-4,.34E-6,0
ONEWEB-0426,2021-132AF,2026-06-08T01:20:52.516896,13.18687944,.00024898,87.9164,337.2627,81.3512,278.7902,0,U,50498,999,22038,-.6303214E-5,.1E-6,0
ONEWEB-0427,2021-132AG,2026-06-08T00:28:39.431712,13.18684227,.00020648,87.9170,337.2587,90.8780,269.2589,0,U,50499,999,22040,.13228068E-3,.65E-6,0
ONEWEB-0429,2021-132AH,2026-06-08T00:09:14.218848,13.18684669,.0001724,87.9160,337.2867,90.6524,269.4806,0,U,50500,999,22037,.96806733E-4,.51E-6,0
ONEWEB-0430,2021-132AJ,2026-06-07T22:02:58.629696,13.18685435,.00016989,87.9162,337.3025,98.0069,262.1255,0,U,50501,999,22040,.19944993E-3,.92E-6,0
ONEWEB-0432,2021-132AK,2026-06-08T00:40:29.902368,13.18260186,.00021033,87.9162,337.2535,100.4857,259.6512,0,U,50502,999,22037,-.10517503E+0,-.41008E-3,0
ONEWEB-0440,2021-132AL,2026-06-08T00:21:22.131936,13.18684753,.00016344,87.9165,337.2786,80.4355,279.6962,0,U,50503,999,22036,.30791272E-3,.134E-5,0
ONEWEB-0450,2021-132AM,2026-06-08T00:11:52.242720,13.18684766,.00016358,87.9158,337.2862,92.4820,267.6499,0,U,50504,999,22039,.11695825E-3,.59E-6,0
