ONEWEB-0395             
1 50475U 21132G   26159.16402930  .00000199  00000+0  52701-3 0  9994
2 50475  87.8890  22.8636 0001936  89.8922 270.2428 13.11415124214530
ONEWEB-0396             
1 50476U 21132H   26159.06204932 -.00000048  00000+0 -15330-3 0  9998
2 50476  87.9170 337.2703 0001961  88.2998 271.8359 13.18684503220437
ONEWEB-0397             
1 50477U 21132J   26159.00135233 -.00000016  00000+0 -72852-4 0  9998
2 50477  87.9169 337.2828 0001950  83.9131 276.2223 13.18684734220405
ONEWEB-0398             
1 50478U 21132K   26159.13180321  .00000031  00000+0  50750-4 0  9999
2 50478  87.8903  22.8601 0001838  93.8521 266.2817 13.11420380214426
ONEWEB-0399             
1 50479U 21132L   26159.11823796 -.00000414  00000+0 -12028-2 0  9999
2 50479  87.8904  22.8739 0002278  77.8535 282.2848 13.11418568214412
ONEWEB-0400             
1 50480U 21132M   26159.20706632 -.00000065  00000+0 -19728-3 0  9997
2 50480  87.9168 337.2314 0001862  96.5171 263.6173 13.18685247220420
ONEWEB-0401             
1 50481U 21132N   26159.02495644 -.00000015  00000+0 -71037-4 0  9993
2 50481  87.9168 337.2647 0001716  83.9860 276.1468 13.18684495220401
ONEWEB-0402             
1 50482U 21132P   26159.06375255  .00000092  00000+0  19972-3 0  9995
2 50482  87.9166 337.2469 0001712  75.7461 284.3861 13.18684628220433
ONEWEB-0403             
1 50483U 21132Q   26159.01315239  .00000048  00000+0  89062-4 0  9996
2 50483  87.9166 337.2809 0001999  90.8707 269.2655 13.18684283220384
ONEWEB-0404             
1 50484U 21132R   26159.09959309 -.00000305  00000+0 -89584-3 0  9993
2 50484  87.8896  22.8759 0002136  85.1839 274.9533 13.11415554214503
ONEWEB-0405             
1 50485U 21132S   26159.02665753  .00000063  00000+0  12797-3 0  9995
2 50485  87.9170 337.2623 0001828 105.5329 254.6005 13.18686133220787
ONEWEB-0406             
1 50486U 21132T   26159.01821409  .00000098  00000+0  21668-3 0  9992
2 50486  87.9159 337.2811 0002385  89.9395 270.2011 13.18684887220416
ONEWEB-0407             
1 50487U 21132U   26159.01147590  .00000061  00000+0  12077-3 0  9999
2 50487  87.9166 337.2743 0001633  91.5555 268.5764 13.18684251220354
ONEWEB-0409             
1 50488U 21132V   26159.17419126 -.00000215  00000+0 -64242-3 0  9998
2 50488  87.8902  22.8488 0002068  88.0848 272.0516 13.11415823214408
ONEWEB-0412             
1 50489U 21132W   26158.92378512  .00000108  00000+0  24136-3 0  9991
2 50489  87.9167 337.3005 0001729  80.8770 279.2558 13.18684508220439
ONEWEB-0413             
1 50490U 21132X   26159.00472567  .00000036  00000+0  59090-4 0  9996
2 50490  87.9155 337.2838 0001611  84.5094 275.6222 13.18680465220381
ONEWEB-0414             
1 50491U 21132Y   26158.91367621  .00000140  00000+0  32168-3 0  9992
2 50491  87.9168 337.2828 0001912  85.3896 274.7454 13.18684577220406
ONEWEB-0417             
1 50492U 21132Z   26158.92210527  .00000094  00000+0  20687-3 0  9997
2 50492  87.9159 337.3015 0002081  91.9490 268.1880 13.18684755220382
ONEWEB-0418             
1 50493U 21132AA  26159.00797043  .00000012  00000+0 -19807-5 0  9996
2 50493  87.9170 337.2832 0002124  92.5118 267.6258 13.18684374220452
ONEWEB-0419             
1 50494U 21132AB  26159.02642263  .00000026  00000+0  32408-4 0  9997
2 50494  87.9170 337.2789 0002039  97.6871 262.4493 13.18665220220375
ONEWEB-0420             
1 50495U 21132AC  26158.91536066  .00000048  00000+0  89069-4 0  9997
2 50495  87.9162 337.3050 0001651  92.3842 267.7479 13.18685215220354
ONEWEB-0421             
1 50496U 21132AD  26159.21211760 -.00000015  00000+0 -71756-4 0  9993
2 50496  87.9164 337.2431 0001963  79.6748 280.4605 13.18684091220431
ONEWEB-0424             
1 50497U 21132AE  26159.02158660  .00000034  00000+0  52313-4 0  9999
2 50497  87.9162 337.2785 0001956 100.6898 259.4454 13.18684952220439
ONEWEB-0426             
1 50498U 21132AF  26159.05616339  .00000010  00000+0 -63032-5 0  9991
2 50498  87.9164 337.2627 0002489  81.3512 278.7902 13.18687944220387
ONEWEB-0427             
1 50499U 21132AG  26159.01990083  .00000065  00000+0  13228-3 0  9998
2 50499  87.9170 337.2587 0002064  90.8780 269.2589 13.18684227220401
ONEWEB-0429             
1 50500U 21132AH  26159.00641457  .00000051  00000+0  96807-4 0  9998
2 50500  87.9160 337.2867 0001724  90.6524 269.4806 13.18684669220370
ONEWEB-0430             
1 50501U 21132AJ  26158.91873414  .00000092  00000+0  19945-3 0  9990
2 50501  87.9162 337.3025 0001698  98.0069 262.1255 13.18685435220400
ONEWEB-0432             
1 50502U 21132AK  26159.02812387 -.00041008  00000+0 -10518+0 0  9993
2 50502  87.9162 337.2535 0002103 100.4857 259.6512 13.18260186220376
ONEWEB-0440             
1 50503U 21132AL  26159.01483949  .00000134  00000+0  30791-3 0  9993
2 50503  87.9165 337.2786 0001634  80.4355 279.6962 13.18684753220366
ONEWEB-0450             
1 50504U 21132AM  26159.00824355  .00000059  00000+0  11696-3 0  9992
2 50504  87.9158 337.2862 0001635  92.4820 267.6499 13.18684766220394
